ONEWEB-0558             
1 56059U 23043P   25361.31027761  .00000067  00000+0  13089-3 0  9997
2 56059  87.9223 278.2667 0001457  58.2773 301.8503 13.21825235135534
ONEWEB-0559             
1 56060U 23043Q   25361.29874762  .00000021  00000+0  19301-4 0  9991
2 56060  87.9222 278.2624 0001778  65.8489 294.2831 13.21825790135548
ONEWEB-0566             
1 56061U 23043R   25361.21647156  .00000097  00000+0  20262-3 0  9999
2 56061  87.9225 278.2774 0001676  62.5330 297.5974 13.21826353135511
ONEWEB-0568             
1 56062U 23043S   25361.18180254  .00000144  00000+0  34291-3 0  9997
2 56062  87.9047 263.0187 0001484  84.6714 275.4586 13.16592638136348
ONEWEB-0574             
1 56063U 23043T   25361.28558790  .00000073  00000+0  14427-3 0  9993
2 56063  87.9224 278.2510 0001868  77.8476 282.2867 13.21826877135561
ONEWEB-0575             
1 56064U 23043U   25361.25146583  .00000166  00000+0  40103-3 0  9997
2 56064  87.9042 263.0045 0001889  85.5031 274.6316 13.16592338136348
ONEWEB-0576             
1 56065U 23043V   25361.23247405  .00000011  00000+0 -60908-5 0  9998
2 56065  87.9050 263.0095 0001758  80.7570 279.3760 13.16593491136338
ONEWEB-0577             
1 56066U 23043W   25361.23880169  .00000114  00000+0  26581-3 0  9999
2 56066  87.9047 263.0076 0002301  86.4658 273.6737 13.16592386136365
